start=new Date('2023-04-06T00:00:00.000Z').valueOf();
sats=[{"CENTER_NAME":"EARTH","REV_AT_EPOCH":"11539","ECCENTRICITY":"0.00010370","PERIAPSIS":"546.512","DECAY_DATE":null,"MEAN_MOTION":"15.06394730","COUNTRY_CODE":"US","TLE_LINE2":"2 47826  53.0545  12.9248 0001037  88.9061 271.2047 15.06394730115390","GP_ID":"229536200","REF_FRAME":"TEME","RCS_SIZE":"LARGE","OBJECT_NAME":"STARLINK-2411","LAUNCH_DATE":"2021-03-11","ELEMENT_SET_NO":"999","EPOCH":"2023-04-05T03:49:14.080800","SEMIMAJOR_AXIS":"6925.365","BSTAR":"0.00128180000000","OBJECT_ID":"2021-018AR","CLASSIFICATION_TYPE":"U","SITE":"AFETR","PERIOD":"95.592","INCLINATION":"53.0545","ARG_OF_PERICENTER":"88.9061","MEAN_ELEMENT_THEORY":"SGP4","NORAD_CAT_ID":"47826","MEAN_ANOMALY":"271.2047","MEAN_MOTION_DDOT":"0.0000000000000","FILE":"3880853","OBJECT_TYPE":"PAYLOAD","RA_OF_ASC_NODE":"12.9248","EPHEMERIS_TYPE":"0","TLE_LINE1":"1 47826U 21018AR  23095.15919075  .00018860  00000-0  12818-2 0  9990","TIME_SYSTEM":"UTC","MEAN_MOTION_DOT":"0.00018860","APOAPSIS":"547.948"},{"RA_OF_ASC_NODE":"359.9710","EPHEMERIS_TYPE":"0","OBJECT_TYPE":"PAYLOAD","MEAN_MOTION_DDOT":"0.0000000000000","FILE":"3881153","MEAN_ELEMENT_THEORY":"SGP4","NORAD_CAT_ID":"47827","MEAN_ANOMALY":"306.5233","INCLINATION":"53.0557","PERIOD":"95.590","ARG_OF_PERICENTER":"53.5853","SITE":"AFETR","MEAN_MOTION_DOT":"0.00030996","APOAPSIS":"547.844","TIME_SYSTEM":"UTC","TLE_LINE1":"1 47827U 21018AS  23095.87152380  .00030996  00000-0  20889-2 0  9999","TLE_LINE2":"2 47827  53.0557 359.9710 0001049  53.5853 306.5233 15.06431240115692","MEAN_MOTION":"15.06431240","COUNTRY_CODE":"US","PERIAPSIS":"546.391","DECAY_DATE":null,"REV_AT_EPOCH":"11569","ECCENTRICITY":"0.00010490","CENTER_NAME":"EARTH","CLASSIFICATION_TYPE":"U","OBJECT_ID":"2021-018AS","BSTAR":"0.00208890000000","SEMIMAJOR_AXIS":"6925.253","ELEMENT_SET_NO":"999","LAUNCH_DATE":"2021-03-11","EPOCH":"2023-04-05T20:54:59.656320","REF_FRAME":"TEME","GP_ID":"229570093","RCS_SIZE":"LARGE","OBJECT_NAME":"STARLINK-2413"},{"OBJECT_ID":"2021-018AT","CLASSIFICATION_TYPE":"U","BSTAR":"0.00010409000000","SEMIMAJOR_AXIS":"6925.385","GP_ID":"229535201","REF_FRAME":"TEME","RCS_SIZE":"LARGE","OBJECT_NAME":"STARLINK-2415","LAUNCH_DATE":"2021-03-11","EPOCH":"2023-04-05T05:02:13.486848","ELEMENT_SET_NO":"999","MEAN_MOTION":"15.06388093","COUNTRY_CODE":"US","TLE_LINE2":"2 47828  53.0556  22.6941 0001382 108.2037 251.9102 15.06388093115262","REV_AT_EPOCH":"11526","ECCENTRICITY":"0.00013820","PERIAPSIS":"546.293","DECAY_DATE":null,"CENTER_NAME":"EARTH","MEAN_MOTION_DOT":"0.00001269","APOAPSIS":"548.207","TIME_SYSTEM":"UTC","TLE_LINE1":"1 47828U 21018AT  23095.20987832  .00001269  00000-0  10409-3 0  9994","OBJECT_TYPE":"PAYLOAD","RA_OF_ASC_NODE":"22.6941","EPHEMERIS_TYPE":"0","FILE":"3880853","MEAN_MOTION_DDOT":"0.0000000000000","PERIOD":"95.593","INCLINATION":"53.0556","ARG_OF_PERICENTER":"108.2037","MEAN_ELEMENT_THEORY":"SGP4","NORAD_CAT_ID":"47828","MEAN_ANOMALY":"251.9102","SITE":"AFETR"},{"BSTAR":"0.00220370000000","OBJECT_ID":"2021-018AU","CLASSIFICATION_TYPE":"U","GP_ID":"229535451","RCS_SIZE":"LARGE","REF_FRAME":"TEME","OBJECT_NAME":"STARLINK-2416","ELEMENT_SET_NO":"999","LAUNCH_DATE":"2021-03-11","EPOCH":"2023-04-05T05:28:45.510528","SEMIMAJOR_AXIS":"6925.449","MEAN_MOTION":"15.06367079","COUNTRY_CODE":"US","TLE_LINE2":"2 47829  53.0552  22.6141 0001283 127.4026 232.7079 15.06367079115252","CENTER_NAME":"EARTH","REV_AT_EPOCH":"11525","ECCENTRICITY":"0.00012830","PERIAPSIS":"546.426","DECAY_DATE":null,"TIME_SYSTEM":"UTC","MEAN_MOTION_DOT":"0.00032666","APOAPSIS":"548.203","TLE_LINE1":"1 47829U 21018AU  23095.22830452  .00032666  00000-0  22037-2 0  9996","FILE":"3880853","MEAN_MOTION_DDOT":"0.0000000000000","OBJECT_TYPE":"PAYLOAD","RA_OF_ASC_NODE":"22.6141","EPHEMERIS_TYPE":"0","SITE":"AFETR","INCLINATION":"53.0552","PERIOD":"95.594","ARG_OF_PERICENTER":"127.4026","NORAD_CAT_ID":"47829","MEAN_ELEMENT_THEORY":"SGP4","MEAN_ANOMALY":"232.7079"},{"ARG_OF_PERICENTER":"79.9913","INCLINATION":"53.0561","PERIOD":"95.594","MEAN_ANOMALY":"280.1191","MEAN_ELEMENT_THEORY":"SGP4","NORAD_CAT_ID":"47830","SITE":"AFETR","OBJECT_TYPE":"PAYLOAD","EPHEMERIS_TYPE":"0","RA_OF_ASC_NODE":"22.9298","MEAN_MOTION_DDOT":"0.0000000000000","FILE":"3880853","TLE_LINE1":"1 47830U 21018AV  23095.15827077  .00015460  00000-0  10551-2 0  9990","APOAPSIS":"547.987","MEAN_MOTION_DOT":"0.00015460","TIME_SYSTEM":"UTC","ECCENTRICITY":"0.00010190","REV_AT_EPOCH":"11524","DECAY_DATE":null,"PERIAPSIS":"546.575","CENTER_NAME":"EARTH","COUNTRY_CODE":"US","MEAN_MOTION":"15.06378020","TLE_LINE2":"2 47830  53.0561  22.9298 0001019  79.9913 280.1191 15.06378020115242","SEMIMAJOR_AXIS":"6925.416","OBJECT_NAME":"STARLINK-2419","RCS_SIZE":"LARGE","GP_ID":"229536700","REF_FRAME":"TEME","EPOCH":"2023-04-05T03:47:54.594528","LAUNCH_DATE":"2021-03-11","ELEMENT_SET_NO":"999","OBJECT_ID":"2021-018AV","CLASSIFICATION_TYPE":"U","BSTAR":"0.00105510000000"},{"SEMIMAJOR_AXIS":"6925.272","ELEMENT_SET_NO":"999","LAUNCH_DATE":"2021-03-11","EPOCH":"2023-04-05T21:19:31.027584","REF_FRAME":"TEME","GP_ID":"229569593","RCS_SIZE":"LARGE","OBJECT_NAME":"STARLINK-2420","CLASSIFICATION_TYPE":"U","OBJECT_ID":"2021-018AW","BSTAR":"0.00175190000000","PERIAPSIS":"546.191","DECAY_DATE":null,"REV_AT_EPOCH":"11576","ECCENTRICITY":"0.00013660","CENTER_NAME":"EARTH","TLE_LINE2":"2 47831  53.0563 354.6566 0001366 133.9134 226.1968 15.06424906115763","COUNTRY_CODE":"US","MEAN_MOTION":"15.06424906","TLE_LINE1":"1 47831U 21018AW  23095.88855356  .00025927  00000-0  17519-2 0  9992","MEAN_MOTION_DOT":"0.00025927","APOAPSIS":"548.083","TIME_SYSTEM":"UTC","NORAD_CAT_ID":"47831","MEAN_ELEMENT_THEORY":"SGP4","MEAN_ANOMALY":"226.1968","PERIOD":"95.591","INCLINATION":"53.0563","ARG_OF_PERICENTER":"133.9134","SITE":"AFETR","RA_OF_ASC_NODE":"354.6566","EPHEMERIS_TYPE":"0","OBJECT_TYPE":"PAYLOAD","MEAN_MOTION_DDOT":"0.0000000000000","FILE":"3881153"},{"OBJECT_ID":"2021-018AX","CLASSIFICATION_TYPE":"U","BSTAR":"0.00239770000000","SEMIMAJOR_AXIS":"6925.517","REF_FRAME":"TEME","GP_ID":"229535701","RCS_SIZE":"LARGE","OBJECT_NAME":"STARLINK-2422","LAUNCH_DATE":"2021-03-11","EPOCH":"2023-04-05T05:56:35.968128","ELEMENT_SET_NO":"999","COUNTRY_CODE":"US","MEAN_MOTION":"15.06345060","TLE_LINE2":"2 47832  53.0549  12.5270 0001308  94.9825 265.1313 15.06345060115400","REV_AT_EPOCH":"11540","ECCENTRICITY":"0.00013080","PERIAPSIS":"546.476","DECAY_DATE":null,"CENTER_NAME":"EARTH","MEAN_MOTION_DOT":"0.00035560","APOAPSIS":"548.288","TIME_SYSTEM":"UTC","TLE_LINE1":"1 47832U 21018AX  23095.24763852  .00035560  00000-0  23977-2 0  9991","OBJECT_TYPE":"PAYLOAD","RA_OF_ASC_NODE":"12.5270","EPHEMERIS_TYPE":"0","FILE":"3880853","MEAN_MOTION_DDOT":"0.0000000000000","INCLINATION":"53.0549","PERIOD":"95.596","ARG_OF_PERICENTER":"94.9825","MEAN_ELEMENT_THEORY":"SGP4","NORAD_CAT_ID":"47832","MEAN_ANOMALY":"265.1313","SITE":"AFETR"},{"CLASSIFICATION_TYPE":"U","OBJECT_ID":"2021-018AY","BSTAR":"0.00130710000000","SEMIMAJOR_AXIS":"6925.392","LAUNCH_DATE":"2021-03-11","ELEMENT_SET_NO":"999","EPOCH":"2023-04-05T06:33:46.995840","OBJECT_NAME":"STARLINK-2423","REF_FRAME":"TEME","GP_ID":"229545211","RCS_SIZE":"LARGE","TLE_LINE2":"2 47833  53.0550  12.4145 0000605  63.7793 296.3258 15.06385809115072","COUNTRY_CODE":"US","MEAN_MOTION":"15.06385809","DECAY_DATE":null,"PERIAPSIS":"546.838","ECCENTRICITY":"0.00006050","REV_AT_EPOCH":"11507","CENTER_NAME":"EARTH","APOAPSIS":"547.676","MEAN_MOTION_DOT":"0.00019234","TIME_SYSTEM":"UTC","TLE_LINE1":"1 47833U 21018AY  23095.27346060  .00019234  00000-0  13071-2 0  9997","EPHEMERIS_TYPE":"0","RA_OF_ASC_NODE":"12.4145","OBJECT_TYPE":"PAYLOAD","MEAN_MOTION_DDOT":"0.0000000000000","FILE":"3881038","MEAN_ANOMALY":"296.3258","MEAN_ELEMENT_THEORY":"SGP4","NORAD_CAT_ID":"47833","ARG_OF_PERICENTER":"63.7793","PERIOD":"95.593","INCLINATION":"53.0550","SITE":"AFETR"},{"MEAN_MOTION_DDOT":"0.0000000000000","FILE":"3880853","OBJECT_TYPE":"PAYLOAD","EPHEMERIS_TYPE":"0","RA_OF_ASC_NODE":"12.3637","SITE":"AFETR","ARG_OF_PERICENTER":"72.9657","INCLINATION":"53.0550","PERIOD":"95.597","MEAN_ANOMALY":"287.1470","NORAD_CAT_ID":"47834","MEAN_ELEMENT_THEORY":"SGP4","TIME_SYSTEM":"UTC","APOAPSIS":"548.320","MEAN_MOTION_DOT":"0.00035461","TLE_LINE1":"1 47834U 21018AZ  23095.28453570  .00035461  00000-0  23924-2 0  9992","MEAN_MOTION":"15.06325318","COUNTRY_CODE":"US","TLE_LINE2":"2 47834  53.0550  12.3637 0001267  72.9657 287.1470 15.06325318115460","CENTER_NAME":"EARTH","ECCENTRICITY":"0.00012670","REV_AT_EPOCH":"11546","DECAY_DATE":null,"PERIAPSIS":"546.565","BSTAR":"0.00239240000000","OBJECT_ID":"2021-018AZ","CLASSIFICATION_TYPE":"U","OBJECT_NAME":"STARLINK-2424","RCS_SIZE":"LARGE","GP_ID":"229536201","REF_FRAME":"TEME","ELEMENT_SET_NO":"999","LAUNCH_DATE":"2021-03-11","EPOCH":"2023-04-05T06:49:43.884480","SEMIMAJOR_AXIS":"6925.577"},{"FILE":"3880853","MEAN_MOTION_DDOT":"0.0000000000000","RA_OF_ASC_NODE":"17.6631","EPHEMERIS_TYPE":"0","OBJECT_TYPE":"PAYLOAD","SITE":"AFETR","NORAD_CAT_ID":"47835","MEAN_ELEMENT_THEORY":"SGP4","MEAN_ANOMALY":"261.3362","PERIOD":"95.597","INCLINATION":"53.0541","ARG_OF_PERICENTER":"98.7774","TIME_SYSTEM":"UTC","MEAN_MOTION_DOT":"0.00035011","APOAPSIS":"548.356","TLE_LINE1":"1 47835U 21018BA  23095.24533838  .00035011  00000-0  23627-2 0  9996","TLE_LINE2":"2 47835  53.0541  17.6631 0001298  98.7774 261.3362 15.06320515115326","MEAN_MOTION":"15.06320515","COUNTRY_CODE":"US","CENTER_NAME":"EARTH","PERIAPSIS":"546.558","DECAY_DATE":null,"REV_AT_EPOCH":"11532","ECCENTRICITY":"0.00012980","BSTAR":"0.00236270000000","CLASSIFICATION_TYPE":"U","OBJECT_ID":"2021-018BA","LAUNCH_DATE":"2021-03-11","ELEMENT_SET_NO":"999","EPOCH":"2023-04-05T05:53:17.236032","REF_FRAME":"TEME","GP_ID":"229536441","RCS_SIZE":"LARGE","OBJECT_NAME":"STARLINK-2425","SEMIMAJOR_AXIS":"6925.592"}];
